STARLINK-5602           
1 55743U 23028C   26068.87403315  .00000013  00000+0  88497-5 0  9996
2 55743  69.9994 244.1559 0003074 267.2991  92.7816 14.98330331166069
SHIYAN-24C 03           
1 58652U 23206C   26068.89147317  .00001350  00000+0  11928-3 0  9993
2 58652  97.3969  41.7507 0002411  66.6237 293.5240 14.97896938120432
